<?xml version="1.0" encoding="UTF-8"?>
<gpx xmlns="http://www.topografix.com/GPX/1/1" xmlns:gpxtpx="http://www.garmin.com/xmlschemas/TrackPointExtension/v1" xmlns:gpxtrkx="http://www.garmin.com/xmlschemas/TrackStatsExtension/v1" xmlns:gpxx="http://www.garmin.com/xmlschemas/GpxExtensions/v3" xmlns:xsi="https://www.w3.org/2001/XMLSchema-instance" creator="bergfex GmbH" version="1.1" xsi:schemaLocation="https://www.topografix.com/GPX/1/1 https://www.topografix.com/GPX/1/1/gpx.xsd"><metadata><link href="https://www.bergfex.at"><text>bergfex GmbH</text></link></metadata><trk><name>Michelbacher Elsbeerweg</name><extensions><gpxtrkx:TrackStatsExtension><gpxtrkx:Distance>9950</gpxtrkx:Distance><gpxtrkx:TotalElapsedTime>15300</gpxtrkx:TotalElapsedTime><gpxtrkx:Ascent>386</gpxtrkx:Ascent><gpxtrkx:Descent>378</gpxtrkx:Descent><gpxtrkx:MaxElevation>642</gpxtrkx:MaxElevation><gpxtrkx:MinElevation>342</gpxtrkx:MinElevation></gpxtrkx:TrackStatsExtension></extensions><trkseg><trkpt lat="48.110454" lon="15.759587"><ele>345.0</ele></trkpt><trkpt lat="48.11136" lon="15.75986"><ele>361.0</ele></trkpt><trkpt lat="48.11168" lon="15.76003"><ele>368.0</ele></trkpt><trkpt lat="48.11179" lon="15.76022"><ele>373.0</ele></trkpt><trkpt lat="48.11194" lon="15.76086"><ele>383.0</ele></trkpt><trkpt lat="48.11207" lon="15.76188"><ele>394.0</ele></trkpt><trkpt lat="48.11231" lon="15.76213"><ele>402.0</ele></trkpt><trkpt lat="48.11256" lon="15.76299"><ele>411.0</ele></trkpt><trkpt lat="48.11345" lon="15.76474"><ele>431.0</ele></trkpt><trkpt lat="48.1139" lon="15.76644"><ele>444.0</ele></trkpt><trkpt lat="48.11409" lon="15.76744"><ele>454.0</ele></trkpt><trkpt lat="48.11422" lon="15.76779"><ele>457.0</ele></trkpt><trkpt lat="48.11442" lon="15.7681"><ele>461.0</ele></trkpt><trkpt lat="48.11454" lon="15.7675"><ele>466.0</ele></trkpt><trkpt lat="48.11488" lon="15.7672"><ele>470.0</ele></trkpt><trkpt lat="48.1151" lon="15.76652"><ele>476.0</ele></trkpt><trkpt lat="48.1158" lon="15.76578"><ele>487.0</ele></trkpt><trkpt lat="48.11638" lon="15.76536"><ele>494.0</ele></trkpt><trkpt lat="48.11692" lon="15.76538"><ele>491.0</ele></trkpt><trkpt lat="48.11766" lon="15.76596"><ele>490.0</ele></trkpt><trkpt lat="48.11898" lon="15.7699"><ele>533.0</ele></trkpt><trkpt lat="48.11932" lon="15.77119"><ele>542.0</ele></trkpt><trkpt lat="48.11945" lon="15.77125"><ele>544.0</ele></trkpt><trkpt lat="48.11964" lon="15.77114"><ele>546.0</ele></trkpt><trkpt lat="48.11991" lon="15.77123"><ele>548.0</ele></trkpt><trkpt lat="48.12012" lon="15.77223"><ele>552.0</ele></trkpt><trkpt lat="48.12119" lon="15.77422"><ele>572.0</ele></trkpt><trkpt lat="48.12268" lon="15.77609"><ele>569.0</ele></trkpt><trkpt lat="48.12328" lon="15.77656"><ele>568.0</ele></trkpt><trkpt lat="48.1237" lon="15.77735"><ele>574.0</ele></trkpt><trkpt lat="48.12416" lon="15.77801"><ele>577.0</ele></trkpt><trkpt lat="48.12454" lon="15.77842"><ele>578.0</ele></trkpt><trkpt lat="48.12495" lon="15.77858"><ele>579.0</ele></trkpt><trkpt lat="48.12542" lon="15.7789"><ele>584.0</ele></trkpt><trkpt lat="48.12585" lon="15.77931"><ele>589.0</ele></trkpt><trkpt lat="48.12603" lon="15.77938"><ele>590.0</ele></trkpt><trkpt lat="48.12666" lon="15.77943"><ele>596.0</ele></trkpt><trkpt lat="48.12788" lon="15.77932"><ele>606.0</ele></trkpt><trkpt lat="48.12886" lon="15.77854"><ele>611.0</ele></trkpt><trkpt lat="48.12917" lon="15.77838"><ele>614.0</ele></trkpt><trkpt lat="48.12978" lon="15.77836"><ele>617.0</ele></trkpt><trkpt lat="48.13042" lon="15.7782"><ele>626.0</ele></trkpt><trkpt lat="48.13111" lon="15.77815"><ele>638.0</ele></trkpt><trkpt lat="48.1313" lon="15.7782"><ele>641.0</ele></trkpt><trkpt lat="48.13186" lon="15.77864"><ele>651.0</ele></trkpt><trkpt lat="48.1313" lon="15.7782"><ele>641.0</ele></trkpt><trkpt lat="48.13111" lon="15.77815"><ele>638.0</ele></trkpt><trkpt lat="48.13042" lon="15.7782"><ele>626.0</ele></trkpt><trkpt lat="48.12978" lon="15.77836"><ele>617.0</ele></trkpt><trkpt lat="48.12917" lon="15.77838"><ele>614.0</ele></trkpt><trkpt lat="48.12886" lon="15.77854"><ele>611.0</ele></trkpt><trkpt lat="48.12788" lon="15.77932"><ele>606.0</ele></trkpt><trkpt lat="48.12666" lon="15.77943"><ele>596.0</ele></trkpt><trkpt lat="48.12603" lon="15.77938"><ele>590.0</ele></trkpt><trkpt lat="48.12529" lon="15.77993"><ele>597.0</ele></trkpt><trkpt lat="48.12485" lon="15.78004"><ele>598.0</ele></trkpt><trkpt lat="48.12433" lon="15.78004"><ele>602.0</ele></trkpt><trkpt lat="48.12426" lon="15.78026"><ele>603.0</ele></trkpt><trkpt lat="48.12413" lon="15.78037"><ele>604.0</ele></trkpt><trkpt lat="48.1223" lon="15.78056"><ele>620.0</ele></trkpt><trkpt lat="48.12194" lon="15.7805"><ele>624.0</ele></trkpt><trkpt lat="48.12156" lon="15.78058"><ele>626.0</ele></trkpt><trkpt lat="48.12107" lon="15.78087"><ele>622.0</ele></trkpt><trkpt lat="48.12" lon="15.78189"><ele>614.0</ele></trkpt><trkpt lat="48.11964" lon="15.78245"><ele>612.0</ele></trkpt><trkpt lat="48.11934" lon="15.78313"><ele>611.0</ele></trkpt><trkpt lat="48.1191" lon="15.78405"><ele>611.0</ele></trkpt><trkpt lat="48.11889" lon="15.78563"><ele>608.0</ele></trkpt><trkpt lat="48.11891" lon="15.787"><ele>602.0</ele></trkpt><trkpt lat="48.11909" lon="15.78814"><ele>597.0</ele></trkpt><trkpt lat="48.11906" lon="15.78854"><ele>595.0</ele></trkpt><trkpt lat="48.11925" lon="15.7899"><ele>585.0</ele></trkpt><trkpt lat="48.11919" lon="15.79141"><ele>571.0</ele></trkpt><trkpt lat="48.11931" lon="15.79202"><ele>568.0</ele></trkpt><trkpt lat="48.11943" lon="15.79328"><ele>563.0</ele></trkpt><trkpt lat="48.11956" lon="15.79354"><ele>564.0</ele></trkpt><trkpt lat="48.11963" lon="15.79357"><ele>564.0</ele></trkpt><trkpt lat="48.11911" lon="15.79288"><ele>560.0</ele></trkpt><trkpt lat="48.11861" lon="15.7924"><ele>553.0</ele></trkpt><trkpt lat="48.11661" lon="15.78955"><ele>522.0</ele></trkpt><trkpt lat="48.11653" lon="15.78936"><ele>522.0</ele></trkpt><trkpt lat="48.116493" lon="15.788255"><ele>540.0</ele></trkpt><trkpt lat="48.11679" lon="15.7872"><ele>560.0</ele></trkpt><trkpt lat="48.11675" lon="15.78701"><ele>563.0</ele></trkpt><trkpt lat="48.11662" lon="15.78693"><ele>564.0</ele></trkpt><trkpt lat="48.116006" lon="15.78686"><ele>575.0</ele></trkpt><trkpt lat="48.115125" lon="15.786334"><ele>583.0</ele></trkpt><trkpt lat="48.11496" lon="15.7857"><ele>582.0</ele></trkpt><trkpt lat="48.11466" lon="15.78554"><ele>578.0</ele></trkpt><trkpt lat="48.11427" lon="15.78554"><ele>574.0</ele></trkpt><trkpt lat="48.11321" lon="15.78624"><ele>562.0</ele></trkpt><trkpt lat="48.11282" lon="15.78632"><ele>558.0</ele></trkpt><trkpt lat="48.11269" lon="15.78672"><ele>553.0</ele></trkpt><trkpt lat="48.11232" lon="15.78654"><ele>554.0</ele></trkpt><trkpt lat="48.11136" lon="15.78651"><ele>560.0</ele></trkpt><trkpt lat="48.109545" lon="15.786141"><ele>566.0</ele></trkpt><trkpt lat="48.108807" lon="15.78377"><ele>547.0</ele></trkpt><trkpt lat="48.108628" lon="15.782998"><ele>542.0</ele></trkpt><trkpt lat="48.107417" lon="15.781485"><ele>551.0</ele></trkpt><trkpt lat="48.107367" lon="15.780788"><ele>548.0</ele></trkpt><trkpt lat="48.10692" lon="15.78018"><ele>545.0</ele></trkpt><trkpt lat="48.107102" lon="15.779747"><ele>541.0</ele></trkpt><trkpt lat="48.10715" lon="15.77887"><ele>535.0</ele></trkpt><trkpt lat="48.10734" lon="15.77805"><ele>530.0</ele></trkpt><trkpt lat="48.10786" lon="15.77658"><ele>514.0</ele></trkpt><trkpt lat="48.10802" lon="15.77519"><ele>510.0</ele></trkpt><trkpt lat="48.10818" lon="15.77452"><ele>506.0</ele></trkpt><trkpt lat="48.10862" lon="15.77408"><ele>494.0</ele></trkpt><trkpt lat="48.10871" lon="15.7736"><ele>491.0</ele></trkpt><trkpt lat="48.10875" lon="15.77273"><ele>486.0</ele></trkpt><trkpt lat="48.10865" lon="15.77133"><ele>482.0</ele></trkpt><trkpt lat="48.10858" lon="15.77105"><ele>481.0</ele></trkpt><trkpt lat="48.10826" lon="15.77046"><ele>476.0</ele></trkpt><trkpt lat="48.10824" lon="15.77032"><ele>473.0</ele></trkpt><trkpt lat="48.10847" lon="15.76961"><ele>465.0</ele></trkpt><trkpt lat="48.10881" lon="15.76689"><ele>430.0</ele></trkpt><trkpt lat="48.10879" lon="15.76669"><ele>426.0</ele></trkpt><trkpt lat="48.10893" lon="15.76651"><ele>427.0</ele></trkpt><trkpt lat="48.109" lon="15.76589"><ele>420.0</ele></trkpt><trkpt lat="48.10914" lon="15.76538"><ele>416.0</ele></trkpt><trkpt lat="48.10919" lon="15.76486"><ele>412.0</ele></trkpt><trkpt lat="48.10915" lon="15.76274"><ele>396.0</ele></trkpt><trkpt lat="48.10953" lon="15.7612"><ele>377.0</ele></trkpt><trkpt lat="48.109509" lon="15.760871"><ele>374.0</ele></trkpt><trkpt lat="48.109358" lon="15.760467"><ele>367.0</ele></trkpt><trkpt lat="48.109151" lon="15.760385"><ele>364.0</ele></trkpt><trkpt lat="48.108792" lon="15.760402"><ele>357.0</ele></trkpt><trkpt lat="48.108417" lon="15.760543"><ele>350.0</ele></trkpt><trkpt lat="48.108327" lon="15.760482"><ele>348.0</ele></trkpt><trkpt lat="48.108083" lon="15.75988"><ele>345.0</ele></trkpt><trkpt lat="48.108835" lon="15.759893"><ele>344.0</ele></trkpt><trkpt lat="48.109279" lon="15.759756"><ele>344.0</ele></trkpt><trkpt lat="48.109549" lon="15.759522"><ele>343.0</ele></trkpt><trkpt lat="48.110367" lon="15.758408"><ele>341.0</ele></trkpt><trkpt lat="48.110455" lon="15.759418"><ele>344.0</ele></trkpt></trkseg></trk></gpx>
