<?xml version="1.0" encoding="UTF-8"?>
<gpx xmlns="http://www.topografix.com/GPX/1/1" xmlns:gpxtpx="http://www.garmin.com/xmlschemas/TrackPointExtension/v1" xmlns:gpxtrkx="http://www.garmin.com/xmlschemas/TrackStatsExtension/v1" xmlns:gpxx="http://www.garmin.com/xmlschemas/GpxExtensions/v3" xmlns:xsi="https://www.w3.org/2001/XMLSchema-instance" creator="bergfex GmbH" version="1.1" xsi:schemaLocation="https://www.topografix.com/GPX/1/1 https://www.topografix.com/GPX/1/1/gpx.xsd"><metadata><link href="https://www.bergfex.at"><text>bergfex GmbH</text></link></metadata><trk><name>Elsbeere Singletrail</name><extensions><gpxtrkx:TrackStatsExtension><gpxtrkx:Distance>2760</gpxtrkx:Distance><gpxtrkx:TotalElapsedTime>900</gpxtrkx:TotalElapsedTime><gpxtrkx:Ascent>129</gpxtrkx:Ascent><gpxtrkx:Descent>126</gpxtrkx:Descent><gpxtrkx:MaxElevation>475</gpxtrkx:MaxElevation><gpxtrkx:MinElevation>337</gpxtrkx:MinElevation></gpxtrkx:TrackStatsExtension></extensions><trkseg><trkpt lat="48.111198" lon="15.757215"><ele>338.0</ele></trkpt><trkpt lat="48.111243" lon="15.757308"><ele>339.0</ele></trkpt><trkpt lat="48.111184" lon="15.757322"><ele>339.0</ele></trkpt><trkpt lat="48.111787" lon="15.75695"><ele>337.0</ele></trkpt><trkpt lat="48.111967" lon="15.756934"><ele>337.0</ele></trkpt><trkpt lat="48.112192" lon="15.757427"><ele>339.0</ele></trkpt><trkpt lat="48.112519" lon="15.757587"><ele>340.0</ele></trkpt><trkpt lat="48.113175" lon="15.757453"><ele>345.0</ele></trkpt><trkpt lat="48.113611" lon="15.757245"><ele>351.0</ele></trkpt><trkpt lat="48.11283" lon="15.758312"><ele>359.0</ele></trkpt><trkpt lat="48.112527" lon="15.758901"><ele>367.0</ele></trkpt><trkpt lat="48.112072" lon="15.760344"><ele>383.0</ele></trkpt><trkpt lat="48.112051" lon="15.760965"><ele>388.0</ele></trkpt><trkpt lat="48.112139" lon="15.761277"><ele>393.0</ele></trkpt><trkpt lat="48.112111" lon="15.761512"><ele>393.0</ele></trkpt><trkpt lat="48.112206" lon="15.762026"><ele>399.0</ele></trkpt><trkpt lat="48.11304" lon="15.764122"><ele>422.0</ele></trkpt><trkpt lat="48.113512" lon="15.764953"><ele>432.0</ele></trkpt><trkpt lat="48.113643" lon="15.76558"><ele>437.0</ele></trkpt><trkpt lat="48.11399" lon="15.766427"><ele>447.0</ele></trkpt><trkpt lat="48.114147" lon="15.767306"><ele>456.0</ele></trkpt><trkpt lat="48.114395" lon="15.767987"><ele>461.0</ele></trkpt><trkpt lat="48.114489" lon="15.767589"><ele>465.0</ele></trkpt><trkpt lat="48.114894" lon="15.767152"><ele>470.0</ele></trkpt><trkpt lat="48.11504" lon="15.766641"><ele>475.0</ele></trkpt><trkpt lat="48.115296" lon="15.766231"><ele>479.0</ele></trkpt><trkpt lat="48.11536" lon="15.765669"><ele>478.0</ele></trkpt><trkpt lat="48.115263" lon="15.764675"><ele>474.0</ele></trkpt><trkpt lat="48.114907" lon="15.763272"><ele>471.0</ele></trkpt><trkpt lat="48.114777" lon="15.762426"><ele>466.0</ele></trkpt><trkpt lat="48.114635" lon="15.762338"><ele>466.0</ele></trkpt><trkpt lat="48.114601" lon="15.762193"><ele>465.0</ele></trkpt><trkpt lat="48.114675" lon="15.761967"><ele>462.0</ele></trkpt><trkpt lat="48.114453" lon="15.761511"><ele>462.0</ele></trkpt><trkpt lat="48.114536" lon="15.761246"><ele>455.0</ele></trkpt><trkpt lat="48.114807" lon="15.761238"><ele>449.0</ele></trkpt><trkpt lat="48.114866" lon="15.761012"><ele>444.0</ele></trkpt><trkpt lat="48.114436" lon="15.759338"><ele>421.0</ele></trkpt><trkpt lat="48.114506" lon="15.759141"><ele>416.0</ele></trkpt><trkpt lat="48.114649" lon="15.759107"><ele>412.0</ele></trkpt><trkpt lat="48.114638" lon="15.758884"><ele>407.0</ele></trkpt><trkpt lat="48.11426" lon="15.758372"><ele>399.0</ele></trkpt><trkpt lat="48.114242" lon="15.758246"><ele>397.0</ele></trkpt><trkpt lat="48.114368" lon="15.75798"><ele>394.0</ele></trkpt><trkpt lat="48.114306" lon="15.757621"><ele>387.0</ele></trkpt><trkpt lat="48.114654" lon="15.75735"><ele>378.0</ele></trkpt><trkpt lat="48.114587" lon="15.757215"><ele>376.0</ele></trkpt><trkpt lat="48.114689" lon="15.757093"><ele>372.0</ele></trkpt><trkpt lat="48.114573" lon="15.756708"><ele>364.0</ele></trkpt><trkpt lat="48.114645" lon="15.756503"><ele>358.0</ele></trkpt><trkpt lat="48.114434" lon="15.756312"><ele>354.0</ele></trkpt><trkpt lat="48.114658" lon="15.756138"><ele>347.0</ele></trkpt><trkpt lat="48.114659" lon="15.75601"><ele>344.0</ele></trkpt><trkpt lat="48.114582" lon="15.755885"><ele>341.0</ele></trkpt><trkpt lat="48.114279" lon="15.755818"><ele>337.0</ele></trkpt><trkpt lat="48.113579" lon="15.756541"><ele>336.0</ele></trkpt><trkpt lat="48.113333" lon="15.756645"><ele>336.0</ele></trkpt><trkpt lat="48.111902" lon="15.756911"><ele>337.0</ele></trkpt><trkpt lat="48.111453" lon="15.757116"><ele>338.0</ele></trkpt></trkseg></trk></gpx>
