<?xml version="1.0" encoding="UTF-8"?>
<gpx xmlns="http://www.topografix.com/GPX/1/1" xmlns:gpxtpx="http://www.garmin.com/xmlschemas/TrackPointExtension/v1" xmlns:gpxtrkx="http://www.garmin.com/xmlschemas/TrackStatsExtension/v1" xmlns:gpxx="http://www.garmin.com/xmlschemas/GpxExtensions/v3" xmlns:xsi="https://www.w3.org/2001/XMLSchema-instance" creator="bergfex GmbH" version="1.1" xsi:schemaLocation="https://www.topografix.com/GPX/1/1 https://www.topografix.com/GPX/1/1/gpx.xsd"><metadata><link href="https://www.bergfex.at"><text>bergfex GmbH</text></link></metadata><trk><name>Kasten bei Böheimkirchen - Hummelberg - Hegerberg</name><extensions><gpxtrkx:TrackStatsExtension><gpxtrkx:Distance>12930</gpxtrkx:Distance><gpxtrkx:TotalElapsedTime>13286</gpxtrkx:TotalElapsedTime><gpxtrkx:Ascent>496</gpxtrkx:Ascent><gpxtrkx:Descent>496</gpxtrkx:Descent><gpxtrkx:MaxElevation>653</gpxtrkx:MaxElevation><gpxtrkx:MinElevation>273</gpxtrkx:MinElevation></gpxtrkx:TrackStatsExtension></extensions><trkseg><trkpt lat="48.1539571821" lon="15.7805711787"><ele>289.1</ele></trkpt><trkpt lat="48.1538878" lon="15.7804488"><ele>288.6</ele></trkpt><trkpt lat="48.1538478" lon="15.7804509"><ele>288.4</ele></trkpt><trkpt lat="48.1537971" lon="15.7805463"><ele>288.1</ele></trkpt><trkpt lat="48.1537318" lon="15.7805488"><ele>288.1</ele></trkpt><trkpt lat="48.1537365574" lon="15.7805101051"><ele>287.7</ele></trkpt><trkpt lat="48.153736557" lon="15.780510105"><ele>287.7</ele></trkpt><trkpt lat="48.153752" lon="15.7803845"><ele>287.6</ele></trkpt><trkpt lat="48.1538835" lon="15.7801553"><ele>287.1</ele></trkpt><trkpt lat="48.1538988" lon="15.7800765"><ele>286.8</ele></trkpt><trkpt lat="48.1538835" lon="15.7800047"><ele>286.2</ele></trkpt><trkpt lat="48.1538281" lon="15.7799158"><ele>285.6</ele></trkpt><trkpt lat="48.1533828" lon="15.7795102"><ele>284.4</ele></trkpt><trkpt lat="48.153242113" lon="15.779216377"><ele>283.0</ele></trkpt><trkpt lat="48.1532246" lon="15.7791798"><ele>280.5</ele></trkpt><trkpt lat="48.1534013" lon="15.7790681"><ele>279.8</ele></trkpt><trkpt lat="48.153551872" lon="15.778882766"><ele>280.0</ele></trkpt><trkpt lat="48.153551872" lon="15.778882766"><ele>280.0</ele></trkpt><trkpt lat="48.1535594" lon="15.7788735"><ele>280.1</ele></trkpt><trkpt lat="48.1537421" lon="15.7785114"><ele>280.3</ele></trkpt><trkpt lat="48.1542074" lon="15.7774922"><ele>280.7</ele></trkpt><trkpt lat="48.1543198" lon="15.7772976"><ele>281.0</ele></trkpt><trkpt lat="48.1544052" lon="15.7771882"><ele>281.5</ele></trkpt><trkpt lat="48.1544739" lon="15.7771314"><ele>281.8</ele></trkpt><trkpt lat="48.1544139" lon="15.7767941"><ele>281.5</ele></trkpt><trkpt lat="48.1542218" lon="15.7764699"><ele>280.7</ele></trkpt><trkpt lat="48.1540108" lon="15.7761662"><ele>278.8</ele></trkpt><trkpt lat="48.1536794" lon="15.7757891"><ele>276.2</ele></trkpt><trkpt lat="48.153324029" lon="15.77539794"><ele>274.4</ele></trkpt><trkpt lat="48.153324029" lon="15.77539794"><ele>274.4</ele></trkpt><trkpt lat="48.153320141" lon="15.775393661"><ele>274.4</ele></trkpt><trkpt lat="48.153320141" lon="15.775393661"><ele>274.4</ele></trkpt><trkpt lat="48.1532842" lon="15.7753541"><ele>274.0</ele></trkpt><trkpt lat="48.1531114" lon="15.7751699"><ele>273.5</ele></trkpt><trkpt lat="48.1529955" lon="15.7750814"><ele>273.6</ele></trkpt><trkpt lat="48.1527259" lon="15.7748782"><ele>273.7</ele></trkpt><trkpt lat="48.152377667" lon="15.77438973"><ele>274.2</ele></trkpt><trkpt lat="48.152377667" lon="15.77438973"><ele>274.2</ele></trkpt><trkpt lat="48.1523641" lon="15.7743707"><ele>274.2</ele></trkpt><trkpt lat="48.1520857" lon="15.7740848"><ele>275.4</ele></trkpt><trkpt lat="48.1519879" lon="15.7740089"><ele>276.3</ele></trkpt><trkpt lat="48.1518886" lon="15.7739696"><ele>277.1</ele></trkpt><trkpt lat="48.1518839" lon="15.7738097"><ele>277.9</ele></trkpt><trkpt lat="48.1518281" lon="15.7735282"><ele>279.0</ele></trkpt><trkpt lat="48.1517369" lon="15.7726587"><ele>281.5</ele></trkpt><trkpt lat="48.1517363" lon="15.7719691"><ele>285.1</ele></trkpt><trkpt lat="48.1517606" lon="15.7714882"><ele>289.4</ele></trkpt><trkpt lat="48.1515387" lon="15.7685767"><ele>299.1</ele></trkpt><trkpt lat="48.1515149" lon="15.7680955"><ele>308.2</ele></trkpt><trkpt lat="48.1514515" lon="15.7675132"><ele>317.3</ele></trkpt><trkpt lat="48.1513643" lon="15.767121"><ele>326.2</ele></trkpt><trkpt lat="48.1510194" lon="15.766206"><ele>331.3</ele></trkpt><trkpt lat="48.1509212" lon="15.7658529"><ele>336.2</ele></trkpt><trkpt lat="48.1508968" lon="15.7656651"><ele>340.2</ele></trkpt><trkpt lat="48.1509501" lon="15.7656003"><ele>343.3</ele></trkpt><trkpt lat="48.1510352" lon="15.765594"><ele>344.4</ele></trkpt><trkpt lat="48.1510899" lon="15.7656382"><ele>344.8</ele></trkpt><trkpt lat="48.151226763" lon="15.766051865"><ele>345.1</ele></trkpt><trkpt lat="48.1512724" lon="15.7661898"><ele>345.6</ele></trkpt><trkpt lat="48.1513542" lon="15.7662915"><ele>346.1</ele></trkpt><trkpt lat="48.1514274" lon="15.76633"><ele>346.6</ele></trkpt><trkpt lat="48.1516861" lon="15.7663486"><ele>347.2</ele></trkpt><trkpt lat="48.1517272" lon="15.7663679"><ele>347.5</ele></trkpt><trkpt lat="48.1518436" lon="15.7664425"><ele>347.9</ele></trkpt><trkpt lat="48.151845446" lon="15.766356262"><ele>348.6</ele></trkpt><trkpt lat="48.1518494" lon="15.7661715"><ele>349.4</ele></trkpt><trkpt lat="48.1519146" lon="15.7659637"><ele>350.9</ele></trkpt><trkpt lat="48.15202" lon="15.7657621"><ele>352.9</ele></trkpt><trkpt lat="48.1523023" lon="15.7655201"><ele>355.8</ele></trkpt><trkpt lat="48.1526993" lon="15.765241"><ele>362.2</ele></trkpt><trkpt lat="48.1529971" lon="15.7651014"><ele>370.9</ele></trkpt><trkpt lat="48.1535336" lon="15.7647509"><ele>380.4</ele></trkpt><trkpt lat="48.1529971" lon="15.7651014"><ele>376.9</ele></trkpt><trkpt lat="48.1526993" lon="15.765241"><ele>374.0</ele></trkpt><trkpt lat="48.1523023" lon="15.7655201"><ele>370.9</ele></trkpt><trkpt lat="48.15202" lon="15.7657621"><ele>364.9</ele></trkpt><trkpt lat="48.1519146" lon="15.7659637"><ele>360.1</ele></trkpt><trkpt lat="48.1518494" lon="15.7661715"><ele>355.8</ele></trkpt><trkpt lat="48.1518436" lon="15.7664425"><ele>352.6</ele></trkpt><trkpt lat="48.1517272" lon="15.7663679"><ele>350.4</ele></trkpt><trkpt lat="48.1516861" lon="15.7663486"><ele>348.9</ele></trkpt><trkpt lat="48.1514274" lon="15.76633"><ele>347.9</ele></trkpt><trkpt lat="48.1513542" lon="15.7662915"><ele>347.5</ele></trkpt><trkpt lat="48.1512724" lon="15.7661898"><ele>347.2</ele></trkpt><trkpt lat="48.1510899" lon="15.7656382"><ele>346.4</ele></trkpt><trkpt lat="48.1510352" lon="15.765594"><ele>345.9</ele></trkpt><trkpt lat="48.1509501" lon="15.7656003"><ele>345.3</ele></trkpt><trkpt lat="48.1508968" lon="15.7656651"><ele>344.8</ele></trkpt><trkpt lat="48.1507594" lon="15.7654246"><ele>345.0</ele></trkpt><trkpt lat="48.1506285" lon="15.7647413"><ele>346.0</ele></trkpt><trkpt lat="48.1505875" lon="15.7642289"><ele>347.5</ele></trkpt><trkpt lat="48.1504515" lon="15.764272"><ele>349.3</ele></trkpt><trkpt lat="48.1502293" lon="15.7638421"><ele>350.4</ele></trkpt><trkpt lat="48.1500453" lon="15.7635832"><ele>350.8</ele></trkpt><trkpt lat="48.1498994" lon="15.7631364"><ele>350.5</ele></trkpt><trkpt lat="48.1498582" lon="15.7624567"><ele>349.9</ele></trkpt><trkpt lat="48.1498674" lon="15.7616269"><ele>349.4</ele></trkpt><trkpt lat="48.1498259" lon="15.7611701"><ele>348.9</ele></trkpt><trkpt lat="48.1497166" lon="15.7607126"><ele>348.6</ele></trkpt><trkpt lat="48.149541" lon="15.7603652"><ele>348.6</ele></trkpt><trkpt lat="48.1494015" lon="15.7599991"><ele>348.7</ele></trkpt><trkpt lat="48.1492555" lon="15.7597234"><ele>348.8</ele></trkpt><trkpt lat="48.1490208" lon="15.7593337"><ele>349.0</ele></trkpt><trkpt lat="48.148098" lon="15.7579457"><ele>349.3</ele></trkpt><trkpt lat="48.1479045" lon="15.757689"><ele>349.5</ele></trkpt><trkpt lat="48.147765" lon="15.7575654"><ele>349.8</ele></trkpt><trkpt lat="48.1475842" lon="15.7574989"><ele>350.0</ele></trkpt><trkpt lat="48.1474573" lon="15.7573848"><ele>350.1</ele></trkpt><trkpt lat="48.1472356" lon="15.7570913"><ele>350.2</ele></trkpt><trkpt lat="48.1468984" lon="15.7561752"><ele>350.0</ele></trkpt><trkpt lat="48.1466188" lon="15.755554"><ele>349.7</ele></trkpt><trkpt lat="48.1463993" lon="15.7551833"><ele>349.2</ele></trkpt><trkpt lat="48.1462259" lon="15.7549871"><ele>348.6</ele></trkpt><trkpt lat="48.1460801" lon="15.7548733"><ele>348.2</ele></trkpt><trkpt lat="48.1460361" lon="15.7546793"><ele>347.9</ele></trkpt><trkpt lat="48.1460295" lon="15.7542351"><ele>346.2</ele></trkpt><trkpt lat="48.1458717" lon="15.7533937"><ele>341.8</ele></trkpt><trkpt lat="48.1457758" lon="15.7526269"><ele>335.2</ele></trkpt><trkpt lat="48.145637" lon="15.7520838"><ele>328.1</ele></trkpt><trkpt lat="48.1454697" lon="15.7517147"><ele>321.3</ele></trkpt><trkpt lat="48.1452839" lon="15.7516194"><ele>316.8</ele></trkpt><trkpt lat="48.1450203" lon="15.7515388"><ele>313.5</ele></trkpt><trkpt lat="48.1446363" lon="15.751213"><ele>309.2</ele></trkpt><trkpt lat="48.1443233" lon="15.7511127"><ele>304.9</ele></trkpt><trkpt lat="48.1441693" lon="15.7510274"><ele>300.6</ele></trkpt><trkpt lat="48.1440721" lon="15.7508945"><ele>296.9</ele></trkpt><trkpt lat="48.1440319" lon="15.7507665"><ele>294.4</ele></trkpt><trkpt lat="48.1440516" lon="15.7506458"><ele>292.7</ele></trkpt><trkpt lat="48.144072249" lon="15.750664068"><ele>291.8</ele></trkpt><trkpt lat="48.1442277" lon="15.7508016"><ele>291.4</ele></trkpt><trkpt lat="48.1444859" lon="15.750775"><ele>290.8</ele></trkpt><trkpt lat="48.1445228" lon="15.7500881"><ele>289.4</ele></trkpt><trkpt lat="48.1445803" lon="15.7498111"><ele>287.7</ele></trkpt><trkpt lat="48.1446263" lon="15.7496971"><ele>285.8</ele></trkpt><trkpt lat="48.144510362" lon="15.749705567"><ele>284.6</ele></trkpt><trkpt lat="48.144336" lon="15.7497183"><ele>284.6</ele></trkpt><trkpt lat="48.1441483" lon="15.7497585"><ele>284.8</ele></trkpt><trkpt lat="48.1435643" lon="15.7499688"><ele>286.0</ele></trkpt><trkpt lat="48.1433841" lon="15.7500581"><ele>287.3</ele></trkpt><trkpt lat="48.1433117" lon="15.750123"><ele>288.7</ele></trkpt><trkpt lat="48.1432537" lon="15.7501962"><ele>290.0</ele></trkpt><trkpt lat="48.1431978" lon="15.7502815"><ele>290.6</ele></trkpt><trkpt lat="48.1431229" lon="15.750375"><ele>291.1</ele></trkpt><trkpt lat="48.1430369" lon="15.7502082"><ele>291.4</ele></trkpt><trkpt lat="48.1427932" lon="15.7498695"><ele>291.7</ele></trkpt><trkpt lat="48.1425053" lon="15.7492978"><ele>291.4</ele></trkpt><trkpt lat="48.1423523" lon="15.7490553"><ele>290.9</ele></trkpt><trkpt lat="48.1422742" lon="15.7490328"><ele>290.4</ele></trkpt><trkpt lat="48.1421371" lon="15.7490438"><ele>290.3</ele></trkpt><trkpt lat="48.1420248" lon="15.7491233"><ele>290.6</ele></trkpt><trkpt lat="48.1417911" lon="15.7493377"><ele>291.4</ele></trkpt><trkpt lat="48.1416162" lon="15.7495838"><ele>292.4</ele></trkpt><trkpt lat="48.1407704" lon="15.749078"><ele>294.4</ele></trkpt><trkpt lat="48.1403685" lon="15.749004"><ele>296.9</ele></trkpt><trkpt lat="48.1399421" lon="15.7489759"><ele>299.7</ele></trkpt><trkpt lat="48.1398506" lon="15.748994"><ele>302.3</ele></trkpt><trkpt lat="48.1397541" lon="15.7490891"><ele>303.9</ele></trkpt><trkpt lat="48.1393349" lon="15.749754"><ele>309.4</ele></trkpt><trkpt lat="48.1392262" lon="15.7500984"><ele>316.2</ele></trkpt><trkpt lat="48.1387709" lon="15.7506028"><ele>327.0</ele></trkpt><trkpt lat="48.1385039" lon="15.7506608"><ele>339.5</ele></trkpt><trkpt lat="48.1382497" lon="15.7504791"><ele>348.2</ele></trkpt><trkpt lat="48.1379828" lon="15.7504018"><ele>355.7</ele></trkpt><trkpt lat="48.1377288" lon="15.7504926"><ele>360.2</ele></trkpt><trkpt lat="48.1372618" lon="15.7508057"><ele>365.1</ele></trkpt><trkpt lat="48.1368594" lon="15.7509642"><ele>371.2</ele></trkpt><trkpt lat="48.1366064" lon="15.7513131"><ele>378.3</ele></trkpt><trkpt lat="48.136413" lon="15.7518467"><ele>386.0</ele></trkpt><trkpt lat="48.1364256" lon="15.7519385"><ele>391.6</ele></trkpt><trkpt lat="48.1363718" lon="15.7520866"><ele>395.8</ele></trkpt><trkpt lat="48.1364246" lon="15.7526874"><ele>399.7</ele></trkpt><trkpt lat="48.1362915" lon="15.7532574"><ele>402.8</ele></trkpt><trkpt lat="48.1358356" lon="15.7531917"><ele>408.1</ele></trkpt><trkpt lat="48.1354811" lon="15.7533951"><ele>415.0</ele></trkpt><trkpt lat="48.1352539" lon="15.7533888"><ele>421.8</ele></trkpt><trkpt lat="48.1351308" lon="15.7534585"><ele>428.3</ele></trkpt><trkpt lat="48.134967" lon="15.7536754"><ele>433.6</ele></trkpt><trkpt lat="48.1348238" lon="15.7543705"><ele>438.1</ele></trkpt><trkpt lat="48.1349152" lon="15.7547861"><ele>442.4</ele></trkpt><trkpt lat="48.1348471" lon="15.7551186"><ele>446.9</ele></trkpt><trkpt lat="48.1349612" lon="15.7559245"><ele>452.3</ele></trkpt><trkpt lat="48.1349517" lon="15.7561738"><ele>457.0</ele></trkpt><trkpt lat="48.1348915" lon="15.7562807"><ele>460.9</ele></trkpt><trkpt lat="48.1349538" lon="15.7564723"><ele>464.5</ele></trkpt><trkpt lat="48.1348888" lon="15.7565657"><ele>466.3</ele></trkpt><trkpt lat="48.1348185" lon="15.7569235"><ele>468.5</ele></trkpt><trkpt lat="48.134455" lon="15.757127"><ele>470.6</ele></trkpt><trkpt lat="48.1342886" lon="15.757298"><ele>472.2</ele></trkpt><trkpt lat="48.1339452" lon="15.7576748"><ele>473.9</ele></trkpt><trkpt lat="48.1339312" lon="15.7578426"><ele>475.2</ele></trkpt><trkpt lat="48.1339393" lon="15.7580986"><ele>476.9</ele></trkpt><trkpt lat="48.1340376" lon="15.7589104"><ele>481.0</ele></trkpt><trkpt lat="48.1340408" lon="15.7591109"><ele>485.3</ele></trkpt><trkpt lat="48.134068" lon="15.7593508"><ele>489.8</ele></trkpt><trkpt lat="48.1340584" lon="15.7604302"><ele>495.9</ele></trkpt><trkpt lat="48.1340049" lon="15.761634"><ele>502.0</ele></trkpt><trkpt lat="48.1340091" lon="15.7617752"><ele>507.8</ele></trkpt><trkpt lat="48.1339892" lon="15.7618675"><ele>513.1</ele></trkpt><trkpt lat="48.1339765" lon="15.7621495"><ele>516.8</ele></trkpt><trkpt lat="48.1339421" lon="15.7623207"><ele>518.2</ele></trkpt><trkpt lat="48.1339321" lon="15.7626062"><ele>519.7</ele></trkpt><trkpt lat="48.1338938" lon="15.7629572"><ele>521.3</ele></trkpt><trkpt lat="48.1338459" lon="15.7642463"><ele>523.5</ele></trkpt><trkpt lat="48.1337963" lon="15.7648062"><ele>525.8</ele></trkpt><trkpt lat="48.1337096" lon="15.7654341"><ele>528.5</ele></trkpt><trkpt lat="48.1336725" lon="15.7656011"><ele>531.0</ele></trkpt><trkpt lat="48.1335445" lon="15.7659661"><ele>533.1</ele></trkpt><trkpt lat="48.1334949" lon="15.766195"><ele>535.2</ele></trkpt><trkpt lat="48.1334454" lon="15.7663311"><ele>537.1</ele></trkpt><trkpt lat="48.1331894" lon="15.766826"><ele>540.1</ele></trkpt><trkpt lat="48.1330138" lon="15.7670569"><ele>543.1</ele></trkpt><trkpt lat="48.1327606" lon="15.7672526"><ele>546.3</ele></trkpt><trkpt lat="48.1325929" lon="15.7673033"><ele>549.7</ele></trkpt><trkpt lat="48.1324417" lon="15.7675399"><ele>551.6</ele></trkpt><trkpt lat="48.132441712" lon="15.76754005"><ele>553.5</ele></trkpt><trkpt lat="48.1324921" lon="15.768191"><ele>555.6</ele></trkpt><trkpt lat="48.1326181" lon="15.7685544"><ele>558.2</ele></trkpt><trkpt lat="48.1326685" lon="15.7691064"><ele>562.5</ele></trkpt><trkpt lat="48.132933" lon="15.7704135"><ele>569.4</ele></trkpt><trkpt lat="48.132932997" lon="15.770414"><ele>576.1</ele></trkpt><trkpt lat="48.1329299" lon="15.7708854"><ele>582.3</ele></trkpt><trkpt lat="48.1329897" lon="15.7711166"><ele>587.8</ele></trkpt><trkpt lat="48.1329717" lon="15.7727226"><ele>593.8</ele></trkpt><trkpt lat="48.132971763" lon="15.772723071"><ele>599.7</ele></trkpt><trkpt lat="48.1330117" lon="15.7730221"><ele>605.3</ele></trkpt><trkpt lat="48.1331909" lon="15.7735362"><ele>611.8</ele></trkpt><trkpt lat="48.1332929" lon="15.7740774"><ele>615.6</ele></trkpt><trkpt lat="48.1332838" lon="15.7743016"><ele>619.5</ele></trkpt><trkpt lat="48.1332425" lon="15.7746244"><ele>623.9</ele></trkpt><trkpt lat="48.1331084" lon="15.7748698"><ele>627.7</ele></trkpt><trkpt lat="48.1330658" lon="15.7750921"><ele>630.5</ele></trkpt><trkpt lat="48.1330787" lon="15.7758632"><ele>633.7</ele></trkpt><trkpt lat="48.1329871" lon="15.7760275"><ele>636.4</ele></trkpt><trkpt lat="48.1328472" lon="15.7766002"><ele>639.1</ele></trkpt><trkpt lat="48.1326618" lon="15.7771158"><ele>642.0</ele></trkpt><trkpt lat="48.1324189" lon="15.7775259"><ele>646.5</ele></trkpt><trkpt lat="48.1323097" lon="15.7778225"><ele>650.6</ele></trkpt><trkpt lat="48.1321769" lon="15.7783463"><ele>654.8</ele></trkpt><trkpt lat="48.1321667" lon="15.778548"><ele>654.0</ele></trkpt><trkpt lat="48.1321134" lon="15.7788985"><ele>652.8</ele></trkpt><trkpt lat="48.1321082" lon="15.7789467"><ele>652.0</ele></trkpt><trkpt lat="48.1322496" lon="15.7789696"><ele>650.3</ele></trkpt><trkpt lat="48.1323259" lon="15.7789574"><ele>648.7</ele></trkpt><trkpt lat="48.1325377" lon="15.778902"><ele>646.4</ele></trkpt><trkpt lat="48.132736" lon="15.7787156"><ele>642.8</ele></trkpt><trkpt lat="48.1330012" lon="15.7786435"><ele>637.8</ele></trkpt><trkpt lat="48.1331762" lon="15.7785217"><ele>631.8</ele></trkpt><trkpt lat="48.1332695" lon="15.7785069"><ele>626.7</ele></trkpt><trkpt lat="48.133971" lon="15.7787073"><ele>616.2</ele></trkpt><trkpt lat="48.1343655" lon="15.778894"><ele>604.9</ele></trkpt><trkpt lat="48.1348823" lon="15.7792189"><ele>591.5</ele></trkpt><trkpt lat="48.135218" lon="15.7793297"><ele>576.1</ele></trkpt><trkpt lat="48.1353211" lon="15.7792095"><ele>566.6</ele></trkpt><trkpt lat="48.135415" lon="15.7791778"><ele>559.1</ele></trkpt><trkpt lat="48.1355191" lon="15.7792669"><ele>554.2</ele></trkpt><trkpt lat="48.1356419" lon="15.7793184"><ele>551.3</ele></trkpt><trkpt lat="48.135643944" lon="15.779283156"><ele>549.2</ele></trkpt><trkpt lat="48.1356489" lon="15.7791977"><ele>547.6</ele></trkpt><trkpt lat="48.1359185" lon="15.7784981"><ele>545.7</ele></trkpt><trkpt lat="48.1362177" lon="15.777959"><ele>543.3</ele></trkpt><trkpt lat="48.1363554" lon="15.7778234"><ele>540.4</ele></trkpt><trkpt lat="48.1365328" lon="15.7775915"><ele>536.6</ele></trkpt><trkpt lat="48.1366913" lon="15.7774305"><ele>533.3</ele></trkpt><trkpt lat="48.1368248" lon="15.7773566"><ele>530.6</ele></trkpt><trkpt lat="48.1383257" lon="15.7766185"><ele>523.2</ele></trkpt><trkpt lat="48.1388255" lon="15.7763932"><ele>514.9</ele></trkpt><trkpt lat="48.1393745" lon="15.7761167"><ele>506.6</ele></trkpt><trkpt lat="48.1394104" lon="15.7764417"><ele>498.5</ele></trkpt><trkpt lat="48.139629" lon="15.7771881"><ele>494.3</ele></trkpt><trkpt lat="48.1399343" lon="15.7790174"><ele>488.8</ele></trkpt><trkpt lat="48.1399635" lon="15.7790731"><ele>483.9</ele></trkpt><trkpt lat="48.1400333" lon="15.7791017"><ele>479.2</ele></trkpt><trkpt lat="48.140157" lon="15.779122"><ele>475.6</ele></trkpt><trkpt lat="48.140472" lon="15.7791203"><ele>475.1</ele></trkpt><trkpt lat="48.1406419" lon="15.7791658"><ele>474.0</ele></trkpt><trkpt lat="48.140642032" lon="15.779165921"><ele>472.9</ele></trkpt><trkpt lat="48.1407139" lon="15.7792315"><ele>471.8</ele></trkpt><trkpt lat="48.140877" lon="15.779508"><ele>469.7</ele></trkpt><trkpt lat="48.141021" lon="15.7800138"><ele>466.7</ele></trkpt><trkpt lat="48.1410919" lon="15.7803408"><ele>462.9</ele></trkpt><trkpt lat="48.1411459" lon="15.7808466"><ele>457.9</ele></trkpt><trkpt lat="48.1411327" lon="15.7809862"><ele>453.5</ele></trkpt><trkpt lat="48.1411404" lon="15.7813739"><ele>449.6</ele></trkpt><trkpt lat="48.1411771" lon="15.7816351"><ele>445.9</ele></trkpt><trkpt lat="48.1411989" lon="15.7817235"><ele>443.4</ele></trkpt><trkpt lat="48.1416005" lon="15.782738"><ele>438.9</ele></trkpt><trkpt lat="48.1417081" lon="15.7830682"><ele>434.8</ele></trkpt><trkpt lat="48.14179" lon="15.7833043"><ele>431.4</ele></trkpt><trkpt lat="48.1420812" lon="15.7835877"><ele>427.6</ele></trkpt><trkpt lat="48.1422117" lon="15.7837451"><ele>425.9</ele></trkpt><trkpt lat="48.1422529" lon="15.7838452"><ele>424.9</ele></trkpt><trkpt lat="48.1422594" lon="15.7839644"><ele>423.6</ele></trkpt><trkpt lat="48.1421111" lon="15.7844698"><ele>422.4</ele></trkpt><trkpt lat="48.1420876" lon="15.7846177"><ele>421.0</ele></trkpt><trkpt lat="48.142094" lon="15.78488"><ele>419.2</ele></trkpt><trkpt lat="48.1421303" lon="15.7854036"><ele>416.2</ele></trkpt><trkpt lat="48.1421966" lon="15.7860358"><ele>412.3</ele></trkpt><trkpt lat="48.1423125" lon="15.7869883"><ele>406.3</ele></trkpt><trkpt lat="48.142416" lon="15.7876087"><ele>399.3</ele></trkpt><trkpt lat="48.1424531" lon="15.7879897"><ele>392.7</ele></trkpt><trkpt lat="48.1425386" lon="15.7894413"><ele>385.2</ele></trkpt><trkpt lat="48.1425713" lon="15.7897346"><ele>379.8</ele></trkpt><trkpt lat="48.1427003" lon="15.7902711"><ele>375.2</ele></trkpt><trkpt lat="48.1430089" lon="15.7912295"><ele>370.1</ele></trkpt><trkpt lat="48.143047" lon="15.7914202"><ele>367.4</ele></trkpt><trkpt lat="48.1430694" lon="15.791692"><ele>364.7</ele></trkpt><trkpt lat="48.1430344" lon="15.7923596"><ele>362.1</ele></trkpt><trkpt lat="48.1430535" lon="15.7926791"><ele>360.6</ele></trkpt><trkpt lat="48.1433526" lon="15.7946198"><ele>356.9</ele></trkpt><trkpt lat="48.1434098" lon="15.7949059"><ele>353.2</ele></trkpt><trkpt lat="48.1436739" lon="15.7958644"><ele>349.4</ele></trkpt><trkpt lat="48.1437057" lon="15.7961648"><ele>345.9</ele></trkpt><trkpt lat="48.1437121" lon="15.7966178"><ele>344.4</ele></trkpt><trkpt lat="48.1436898" lon="15.7976287"><ele>342.5</ele></trkpt><trkpt lat="48.1437344" lon="15.797786"><ele>342.0</ele></trkpt><trkpt lat="48.1438235" lon="15.7978957"><ele>341.2</ele></trkpt><trkpt lat="48.143973" lon="15.7979434"><ele>340.2</ele></trkpt><trkpt lat="48.1441486" lon="15.7979577"><ele>339.3</ele></trkpt><trkpt lat="48.1446603" lon="15.7977524"><ele>336.2</ele></trkpt><trkpt lat="48.1455909" lon="15.7975646"><ele>330.4</ele></trkpt><trkpt lat="48.1458597" lon="15.7975619"><ele>324.3</ele></trkpt><trkpt lat="48.1459838" lon="15.797519"><ele>318.3</ele></trkpt><trkpt lat="48.1464643" lon="15.7972281"><ele>312.3</ele></trkpt><trkpt lat="48.146652" lon="15.7972043"><ele>308.7</ele></trkpt><trkpt lat="48.1467665" lon="15.797252"><ele>305.7</ele></trkpt><trkpt lat="48.1468361" lon="15.797326"><ele>302.7</ele></trkpt><trkpt lat="48.1470956" lon="15.7978054"><ele>300.5</ele></trkpt><trkpt lat="48.1472667" lon="15.7979342"><ele>298.6</ele></trkpt><trkpt lat="48.1473751" lon="15.7979276"><ele>297.0</ele></trkpt><trkpt lat="48.1477782" lon="15.7978166"><ele>295.1</ele></trkpt><trkpt lat="48.1480054" lon="15.7978024"><ele>293.6</ele></trkpt><trkpt lat="48.148047939" lon="15.797810703"><ele>292.9</ele></trkpt><trkpt lat="48.148047939" lon="15.797810703"><ele>292.9</ele></trkpt><trkpt lat="48.1481837" lon="15.7978372"><ele>292.7</ele></trkpt><trkpt lat="48.148165961" lon="15.797878387"><ele>292.8</ele></trkpt><trkpt lat="48.148165961" lon="15.797878387"><ele>292.8</ele></trkpt><trkpt lat="48.1481837" lon="15.7978372"><ele>292.7</ele></trkpt><trkpt lat="48.1483237" lon="15.7975597"><ele>292.2</ele></trkpt><trkpt lat="48.148328758" lon="15.797539897"><ele>292.1</ele></trkpt><trkpt lat="48.148328758" lon="15.797539897"><ele>292.1</ele></trkpt><trkpt lat="48.1483789" lon="15.7973436"><ele>292.0</ele></trkpt><trkpt lat="48.1484006" lon="15.7971942"><ele>291.9</ele></trkpt><trkpt lat="48.1484251" lon="15.7966745"><ele>291.7</ele></trkpt><trkpt lat="48.1484271" lon="15.7966424"><ele>291.5</ele></trkpt><trkpt lat="48.1484368" lon="15.7958792"><ele>291.3</ele></trkpt><trkpt lat="48.1484545" lon="15.7955757"><ele>291.0</ele></trkpt><trkpt lat="48.1483737" lon="15.7955255"><ele>290.8</ele></trkpt><trkpt lat="48.1479055" lon="15.7950981"><ele>290.3</ele></trkpt><trkpt lat="48.1478917" lon="15.79495"><ele>289.8</ele></trkpt><trkpt lat="48.1478947" lon="15.7945257"><ele>289.1</ele></trkpt><trkpt lat="48.1477087" lon="15.7938853"><ele>288.1</ele></trkpt><trkpt lat="48.1476753" lon="15.7937565"><ele>287.5</ele></trkpt><trkpt lat="48.1476414" lon="15.7932837"><ele>286.8</ele></trkpt><trkpt lat="48.1476372" lon="15.7923828"><ele>286.2</ele></trkpt><trkpt lat="48.1475749" lon="15.7918019"><ele>285.9</ele></trkpt><trkpt lat="48.1475226" lon="15.7915094"><ele>285.6</ele></trkpt><trkpt lat="48.14746068" lon="15.7915156"><ele>285.3</ele></trkpt><trkpt lat="48.1471421" lon="15.7915475"><ele>285.3</ele></trkpt><trkpt lat="48.1470074" lon="15.7914971"><ele>285.5</ele></trkpt><trkpt lat="48.147059" lon="15.791413"><ele>285.6</ele></trkpt><trkpt lat="48.147098378" lon="15.791388653"><ele>285.6</ele></trkpt><trkpt lat="48.1471761" lon="15.7913406"><ele>285.5</ele></trkpt><trkpt lat="48.1473346" lon="15.7911654"><ele>285.1</ele></trkpt><trkpt lat="48.147443046" lon="15.791120018"><ele>284.8</ele></trkpt><trkpt lat="48.147443046" lon="15.791120018"><ele>284.8</ele></trkpt><trkpt lat="48.147445" lon="15.7911192"><ele>284.6</ele></trkpt><trkpt lat="48.1474108" lon="15.7909476"><ele>284.6</ele></trkpt><trkpt lat="48.1472312" lon="15.7903731"><ele>284.4</ele></trkpt><trkpt lat="48.147128" lon="15.7901378"><ele>284.3</ele></trkpt><trkpt lat="48.1469922" lon="15.789718"><ele>284.0</ele></trkpt><trkpt lat="48.1469738" lon="15.7896208"><ele>283.8</ele></trkpt><trkpt lat="48.1469328" lon="15.7893152"><ele>283.6</ele></trkpt><trkpt lat="48.1469653" lon="15.7890312"><ele>283.4</ele></trkpt><trkpt lat="48.1470954" lon="15.7883867"><ele>283.1</ele></trkpt><trkpt lat="48.1472057" lon="15.7881047"><ele>282.9</ele></trkpt><trkpt lat="48.1472879" lon="15.7879507"><ele>282.6</ele></trkpt><trkpt lat="48.1478239" lon="15.7859191"><ele>282.0</ele></trkpt><trkpt lat="48.147858" lon="15.7858796"><ele>281.6</ele></trkpt><trkpt lat="48.1479134" lon="15.785869"><ele>281.2</ele></trkpt><trkpt lat="48.1481534" lon="15.7859382"><ele>280.7</ele></trkpt><trkpt lat="48.1483067" lon="15.7859141"><ele>280.7</ele></trkpt><trkpt lat="48.1484957" lon="15.7858641"><ele>280.4</ele></trkpt><trkpt lat="48.1485915" lon="15.7858767"><ele>280.4</ele></trkpt><trkpt lat="48.148590826" lon="15.785856845"><ele>280.4</ele></trkpt><trkpt lat="48.1485796" lon="15.7855262"><ele>280.4</ele></trkpt><trkpt lat="48.148986" lon="15.7842125"><ele>280.4</ele></trkpt><trkpt lat="48.1492127" lon="15.7833865"><ele>279.7</ele></trkpt><trkpt lat="48.1494393" lon="15.7820019"><ele>278.5</ele></trkpt><trkpt lat="48.1495181" lon="15.7817111"><ele>279.2</ele></trkpt><trkpt lat="48.149466432" lon="15.781621829"><ele>279.1</ele></trkpt><trkpt lat="48.149466432" lon="15.781621829"><ele>279.1</ele></trkpt><trkpt lat="48.1494259" lon="15.7815518"><ele>279.1</ele></trkpt><trkpt lat="48.1492445" lon="15.780978"><ele>278.9</ele></trkpt><trkpt lat="48.1492369" lon="15.7809082"><ele>278.8</ele></trkpt><trkpt lat="48.1492417" lon="15.7807555"><ele>278.7</ele></trkpt><trkpt lat="48.1493228" lon="15.7804039"><ele>278.5</ele></trkpt><trkpt lat="48.1493577" lon="15.7801116"><ele>278.3</ele></trkpt><trkpt lat="48.1493628" lon="15.7799067"><ele>278.1</ele></trkpt><trkpt lat="48.1493229" lon="15.7788036"><ele>277.8</ele></trkpt><trkpt lat="48.1493575" lon="15.7785214"><ele>277.4</ele></trkpt><trkpt lat="48.1494985" lon="15.7781753"><ele>277.1</ele></trkpt><trkpt lat="48.1496505" lon="15.7779686"><ele>276.7</ele></trkpt><trkpt lat="48.1497851" lon="15.7778568"><ele>276.5</ele></trkpt><trkpt lat="48.149794423" lon="15.777853085"><ele>276.5</ele></trkpt><trkpt lat="48.149794423" lon="15.777853085"><ele>276.5</ele></trkpt><trkpt lat="48.1502286" lon="15.7776801"><ele>276.2</ele></trkpt><trkpt lat="48.1503849" lon="15.7775479"><ele>276.0</ele></trkpt><trkpt lat="48.1509608" lon="15.7767013"><ele>275.5</ele></trkpt><trkpt lat="48.1512229" lon="15.7765859"><ele>275.1</ele></trkpt><trkpt lat="48.1513429" lon="15.7766166"><ele>274.9</ele></trkpt><trkpt lat="48.1513901" lon="15.7766845"><ele>274.9</ele></trkpt><trkpt lat="48.1515226" lon="15.7772441"><ele>275.2</ele></trkpt><trkpt lat="48.151585" lon="15.7774187"><ele>276.0</ele></trkpt><trkpt lat="48.151725" lon="15.7776727"><ele>276.7</ele></trkpt><trkpt lat="48.1520703" lon="15.7781273"><ele>277.5</ele></trkpt><trkpt lat="48.152102257" lon="15.778166023"><ele>277.7</ele></trkpt><trkpt lat="48.152102257" lon="15.778166023"><ele>277.7</ele></trkpt><trkpt lat="48.1522049" lon="15.7782904"><ele>277.8</ele></trkpt><trkpt lat="48.15295988" lon="15.779195224"><ele>278.6</ele></trkpt><trkpt lat="48.15295988" lon="15.779195224"><ele>278.6</ele></trkpt><trkpt lat="48.1530307" lon="15.7792801"><ele>279.0</ele></trkpt><trkpt lat="48.152945959" lon="15.779342419"><ele>279.4</ele></trkpt><trkpt lat="48.152945959" lon="15.779342419"><ele>279.4</ele></trkpt><trkpt lat="48.1530307" lon="15.7792801"><ele>279.4</ele></trkpt><trkpt lat="48.1532246" lon="15.7791798"><ele>279.5</ele></trkpt><trkpt lat="48.1533828" lon="15.7795102"><ele>279.9</ele></trkpt><trkpt lat="48.1538281" lon="15.7799158"><ele>281.3</ele></trkpt><trkpt lat="48.15382812" lon="15.779915832"><ele>282.8</ele></trkpt><trkpt lat="48.1538835" lon="15.7800047"><ele>284.2</ele></trkpt><trkpt lat="48.1538988" lon="15.7800765"><ele>285.4</ele></trkpt><trkpt lat="48.1538835" lon="15.7801553"><ele>285.8</ele></trkpt><trkpt lat="48.153752" lon="15.7803845"><ele>286.8</ele></trkpt><trkpt lat="48.153736557" lon="15.780510105"><ele>287.7</ele></trkpt><trkpt lat="48.1537365574" lon="15.7805101051"><ele>287.7</ele></trkpt><trkpt lat="48.1537318" lon="15.7805488"><ele>288.1</ele></trkpt><trkpt lat="48.1537971" lon="15.7805463"><ele>288.1</ele></trkpt><trkpt lat="48.1538478" lon="15.7804509"><ele>288.4</ele></trkpt><trkpt lat="48.1538878" lon="15.7804488"><ele>288.6</ele></trkpt><trkpt lat="48.1539571821" lon="15.7805711787"><ele>289.1</ele></trkpt><trkpt lat="48.1539571821" lon="15.7805711787"><ele>289.1</ele></trkpt></trkseg></trk></gpx>
