<?xml version="1.0" encoding="UTF-8"?>
<gpx version="1.1" creator="hegerberg.at" xmlns="http://www.topografix.com/GPX/1/1">
  <metadata>
    <name>Sternwanderung Stössing – Hegerberg</name>
    <desc>Der klassische Aufstieg von Stössing zum Schutzhaus</desc>
  </metadata>
  <trk>
    <name>Sternwanderung Stössing – Hegerberg</name>
    <trkseg>
    <trkpt lat="48.110388" lon="15.754914">
      <ele>391.7</ele>
      <time>2026-05-17T08:30:00Z</time>
    </trkpt>
    <trkpt lat="48.110476" lon="15.755003">
      <ele>391.4</ele>
      <time>2026-05-17T08:30:24Z</time>
    </trkpt>
    <trkpt lat="48.110589" lon="15.755083">
      <ele>390.9</ele>
      <time>2026-05-17T08:30:48Z</time>
    </trkpt>
    <trkpt lat="48.110689" lon="15.755209">
      <ele>391.1</ele>
      <time>2026-05-17T08:31:12Z</time>
    </trkpt>
    <trkpt lat="48.110789" lon="15.755309">
      <ele>391.7</ele>
      <time>2026-05-17T08:31:36Z</time>
    </trkpt>
    <trkpt lat="48.110922" lon="15.755450">
      <ele>391.1</ele>
      <time>2026-05-17T08:32:00Z</time>
    </trkpt>
    <trkpt lat="48.111054" lon="15.755605">
      <ele>390.7</ele>
      <time>2026-05-17T08:32:24Z</time>
    </trkpt>
    <trkpt lat="48.111177" lon="15.755753">
      <ele>391.1</ele>
      <time>2026-05-17T08:32:48Z</time>
    </trkpt>
    <trkpt lat="48.111319" lon="15.755904">
      <ele>390.8</ele>
      <time>2026-05-17T08:33:12Z</time>
    </trkpt>
    <trkpt lat="48.111500" lon="15.756037">
      <ele>391.7</ele>
      <time>2026-05-17T08:33:36Z</time>
    </trkpt>
    <trkpt lat="48.111644" lon="15.756222">
      <ele>392.3</ele>
      <time>2026-05-17T08:34:00Z</time>
    </trkpt>
    <trkpt lat="48.111824" lon="15.756397">
      <ele>392.3</ele>
      <time>2026-05-17T08:34:24Z</time>
    </trkpt>
    <trkpt lat="48.111969" lon="15.756546">
      <ele>392.8</ele>
      <time>2026-05-17T08:34:48Z</time>
    </trkpt>
    <trkpt lat="48.112137" lon="15.756751">
      <ele>393.8</ele>
      <time>2026-05-17T08:35:12Z</time>
    </trkpt>
    <trkpt lat="48.112315" lon="15.756919">
      <ele>395.0</ele>
      <time>2026-05-17T08:35:36Z</time>
    </trkpt>
    <trkpt lat="48.112497" lon="15.757134">
      <ele>396.0</ele>
      <time>2026-05-17T08:36:00Z</time>
    </trkpt>
    <trkpt lat="48.112688" lon="15.757314">
      <ele>397.9</ele>
      <time>2026-05-17T08:36:24Z</time>
    </trkpt>
    <trkpt lat="48.112891" lon="15.757522">
      <ele>400.1</ele>
      <time>2026-05-17T08:36:48Z</time>
    </trkpt>
    <trkpt lat="48.113065" lon="15.757715">
      <ele>401.8</ele>
      <time>2026-05-17T08:37:12Z</time>
    </trkpt>
    <trkpt lat="48.113231" lon="15.757901">
      <ele>403.0</ele>
      <time>2026-05-17T08:37:36Z</time>
    </trkpt>
    <trkpt lat="48.113422" lon="15.758112">
      <ele>404.5</ele>
      <time>2026-05-17T08:38:00Z</time>
    </trkpt>
    <trkpt lat="48.113605" lon="15.758347">
      <ele>407.1</ele>
      <time>2026-05-17T08:38:24Z</time>
    </trkpt>
    <trkpt lat="48.113815" lon="15.758543">
      <ele>409.0</ele>
      <time>2026-05-17T08:38:48Z</time>
    </trkpt>
    <trkpt lat="48.113995" lon="15.758732">
      <ele>411.2</ele>
      <time>2026-05-17T08:39:12Z</time>
    </trkpt>
    <trkpt lat="48.114167" lon="15.758958">
      <ele>413.6</ele>
      <time>2026-05-17T08:39:36Z</time>
    </trkpt>
    <trkpt lat="48.114358" lon="15.759179">
      <ele>415.4</ele>
      <time>2026-05-17T08:40:00Z</time>
    </trkpt>
    <trkpt lat="48.114512" lon="15.759395">
      <ele>417.1</ele>
      <time>2026-05-17T08:40:24Z</time>
    </trkpt>
    <trkpt lat="48.114722" lon="15.759584">
      <ele>417.8</ele>
      <time>2026-05-17T08:40:48Z</time>
    </trkpt>
    <trkpt lat="48.114883" lon="15.759795">
      <ele>419.3</ele>
      <time>2026-05-17T08:41:12Z</time>
    </trkpt>
    <trkpt lat="48.115024" lon="15.759995">
      <ele>420.6</ele>
      <time>2026-05-17T08:41:36Z</time>
    </trkpt>
    <trkpt lat="48.115181" lon="15.760207">
      <ele>422.7</ele>
      <time>2026-05-17T08:42:00Z</time>
    </trkpt>
    <trkpt lat="48.115342" lon="15.760395">
      <ele>423.2</ele>
      <time>2026-05-17T08:42:24Z</time>
    </trkpt>
    <trkpt lat="48.115526" lon="15.760605">
      <ele>425.6</ele>
      <time>2026-05-17T08:42:48Z</time>
    </trkpt>
    <trkpt lat="48.115654" lon="15.760859">
      <ele>426.2</ele>
      <time>2026-05-17T08:43:12Z</time>
    </trkpt>
    <trkpt lat="48.115837" lon="15.761050">
      <ele>427.1</ele>
      <time>2026-05-17T08:43:36Z</time>
    </trkpt>
    <trkpt lat="48.116013" lon="15.761300">
      <ele>427.7</ele>
      <time>2026-05-17T08:44:00Z</time>
    </trkpt>
    <trkpt lat="48.116168" lon="15.761557">
      <ele>428.9</ele>
      <time>2026-05-17T08:44:24Z</time>
    </trkpt>
    <trkpt lat="48.116329" lon="15.761781">
      <ele>431.0</ele>
      <time>2026-05-17T08:44:48Z</time>
    </trkpt>
    <trkpt lat="48.116468" lon="15.762009">
      <ele>430.9</ele>
      <time>2026-05-17T08:45:12Z</time>
    </trkpt>
    <trkpt lat="48.116634" lon="15.762282">
      <ele>432.0</ele>
      <time>2026-05-17T08:45:36Z</time>
    </trkpt>
    <trkpt lat="48.116808" lon="15.762533">
      <ele>434.4</ele>
      <time>2026-05-17T08:46:00Z</time>
    </trkpt>
    <trkpt lat="48.116946" lon="15.762775">
      <ele>435.4</ele>
      <time>2026-05-17T08:46:24Z</time>
    </trkpt>
    <trkpt lat="48.117128" lon="15.763032">
      <ele>436.3</ele>
      <time>2026-05-17T08:46:48Z</time>
    </trkpt>
    <trkpt lat="48.117262" lon="15.763275">
      <ele>437.5</ele>
      <time>2026-05-17T08:47:12Z</time>
    </trkpt>
    <trkpt lat="48.117414" lon="15.763513">
      <ele>439.0</ele>
      <time>2026-05-17T08:47:36Z</time>
    </trkpt>
    <trkpt lat="48.117613" lon="15.763805">
      <ele>441.7</ele>
      <time>2026-05-17T08:48:00Z</time>
    </trkpt>
    <trkpt lat="48.117734" lon="15.764046">
      <ele>443.9</ele>
      <time>2026-05-17T08:48:24Z</time>
    </trkpt>
    <trkpt lat="48.117907" lon="15.764282">
      <ele>445.3</ele>
      <time>2026-05-17T08:48:48Z</time>
    </trkpt>
    <trkpt lat="48.118080" lon="15.764555">
      <ele>449.3</ele>
      <time>2026-05-17T08:49:12Z</time>
    </trkpt>
    <trkpt lat="48.118217" lon="15.764776">
      <ele>451.2</ele>
      <time>2026-05-17T08:49:36Z</time>
    </trkpt>
    <trkpt lat="48.118366" lon="15.765001">
      <ele>453.4</ele>
      <time>2026-05-17T08:50:00Z</time>
    </trkpt>
    <trkpt lat="48.118542" lon="15.765244">
      <ele>457.1</ele>
      <time>2026-05-17T08:50:24Z</time>
    </trkpt>
    <trkpt lat="48.118660" lon="15.765472">
      <ele>458.9</ele>
      <time>2026-05-17T08:50:48Z</time>
    </trkpt>
    <trkpt lat="48.118800" lon="15.765728">
      <ele>462.3</ele>
      <time>2026-05-17T08:51:12Z</time>
    </trkpt>
    <trkpt lat="48.118946" lon="15.765953">
      <ele>464.5</ele>
      <time>2026-05-17T08:51:36Z</time>
    </trkpt>
    <trkpt lat="48.119113" lon="15.766154">
      <ele>467.6</ele>
      <time>2026-05-17T08:52:00Z</time>
    </trkpt>
    <trkpt lat="48.119233" lon="15.766338">
      <ele>470.9</ele>
      <time>2026-05-17T08:52:24Z</time>
    </trkpt>
    <trkpt lat="48.119384" lon="15.766579">
      <ele>474.5</ele>
      <time>2026-05-17T08:52:48Z</time>
    </trkpt>
    <trkpt lat="48.119519" lon="15.766762">
      <ele>477.1</ele>
      <time>2026-05-17T08:53:12Z</time>
    </trkpt>
    <trkpt lat="48.119653" lon="15.766919">
      <ele>479.6</ele>
      <time>2026-05-17T08:53:36Z</time>
    </trkpt>
    <trkpt lat="48.119782" lon="15.767102">
      <ele>481.4</ele>
      <time>2026-05-17T08:54:00Z</time>
    </trkpt>
    <trkpt lat="48.119942" lon="15.767265">
      <ele>484.8</ele>
      <time>2026-05-17T08:54:24Z</time>
    </trkpt>
    <trkpt lat="48.120055" lon="15.767391">
      <ele>486.4</ele>
      <time>2026-05-17T08:54:48Z</time>
    </trkpt>
    <trkpt lat="48.120180" lon="15.767541">
      <ele>488.2</ele>
      <time>2026-05-17T08:55:12Z</time>
    </trkpt>
    <trkpt lat="48.120306" lon="15.767713">
      <ele>491.9</ele>
      <time>2026-05-17T08:55:36Z</time>
    </trkpt>
    <trkpt lat="48.120417" lon="15.767842">
      <ele>493.1</ele>
      <time>2026-05-17T08:56:00Z</time>
    </trkpt>
    <trkpt lat="48.120563" lon="15.767958">
      <ele>495.5</ele>
      <time>2026-05-17T08:56:24Z</time>
    </trkpt>
    <trkpt lat="48.120660" lon="15.768036">
      <ele>497.3</ele>
      <time>2026-05-17T08:56:48Z</time>
    </trkpt>
    <trkpt lat="48.120808" lon="15.768168">
      <ele>499.3</ele>
      <time>2026-05-17T08:57:12Z</time>
    </trkpt>
    <trkpt lat="48.120903" lon="15.768278">
      <ele>500.8</ele>
      <time>2026-05-17T08:57:36Z</time>
    </trkpt>
    <trkpt lat="48.121031" lon="15.768378">
      <ele>501.5</ele>
      <time>2026-05-17T08:58:00Z</time>
    </trkpt>
    <trkpt lat="48.121149" lon="15.768435">
      <ele>503.5</ele>
      <time>2026-05-17T08:58:24Z</time>
    </trkpt>
    <trkpt lat="48.121217" lon="15.768560">
      <ele>504.7</ele>
      <time>2026-05-17T08:58:48Z</time>
    </trkpt>
    <trkpt lat="48.121342" lon="15.768646">
      <ele>505.8</ele>
      <time>2026-05-17T08:59:12Z</time>
    </trkpt>
    <trkpt lat="48.121461" lon="15.768733">
      <ele>507.8</ele>
      <time>2026-05-17T08:59:36Z</time>
    </trkpt>
    <trkpt lat="48.121551" lon="15.768809">
      <ele>508.7</ele>
      <time>2026-05-17T09:00:00Z</time>
    </trkpt>
    <trkpt lat="48.121678" lon="15.768890">
      <ele>510.4</ele>
      <time>2026-05-17T09:00:24Z</time>
    </trkpt>
    <trkpt lat="48.121754" lon="15.768959">
      <ele>511.1</ele>
      <time>2026-05-17T09:00:48Z</time>
    </trkpt>
    <trkpt lat="48.121884" lon="15.769021">
      <ele>513.5</ele>
      <time>2026-05-17T09:01:12Z</time>
    </trkpt>
    <trkpt lat="48.121995" lon="15.769127">
      <ele>514.0</ele>
      <time>2026-05-17T09:01:36Z</time>
    </trkpt>
    <trkpt lat="48.122071" lon="15.769190">
      <ele>516.0</ele>
      <time>2026-05-17T09:02:00Z</time>
    </trkpt>
    <trkpt lat="48.122203" lon="15.769291">
      <ele>517.4</ele>
      <time>2026-05-17T09:02:24Z</time>
    </trkpt>
    <trkpt lat="48.122270" lon="15.769343">
      <ele>518.5</ele>
      <time>2026-05-17T09:02:48Z</time>
    </trkpt>
    <trkpt lat="48.122397" lon="15.769445">
      <ele>519.7</ele>
      <time>2026-05-17T09:03:12Z</time>
    </trkpt>
    <trkpt lat="48.122476" lon="15.769527">
      <ele>521.0</ele>
      <time>2026-05-17T09:03:36Z</time>
    </trkpt>
    <trkpt lat="48.122578" lon="15.769645">
      <ele>521.5</ele>
      <time>2026-05-17T09:04:00Z</time>
    </trkpt>
    <trkpt lat="48.122673" lon="15.769744">
      <ele>524.0</ele>
      <time>2026-05-17T09:04:24Z</time>
    </trkpt>
    <trkpt lat="48.122803" lon="15.769834">
      <ele>525.3</ele>
      <time>2026-05-17T09:04:48Z</time>
    </trkpt>
    <trkpt lat="48.122906" lon="15.769943">
      <ele>526.7</ele>
      <time>2026-05-17T09:05:12Z</time>
    </trkpt>
    <trkpt lat="48.122981" lon="15.770083">
      <ele>527.9</ele>
      <time>2026-05-17T09:05:36Z</time>
    </trkpt>
    <trkpt lat="48.123119" lon="15.770219">
      <ele>530.3</ele>
      <time>2026-05-17T09:06:00Z</time>
    </trkpt>
    <trkpt lat="48.123218" lon="15.770334">
      <ele>532.3</ele>
      <time>2026-05-17T09:06:24Z</time>
    </trkpt>
    <trkpt lat="48.123304" lon="15.770468">
      <ele>534.3</ele>
      <time>2026-05-17T09:06:48Z</time>
    </trkpt>
    <trkpt lat="48.123386" lon="15.770616">
      <ele>535.9</ele>
      <time>2026-05-17T09:07:12Z</time>
    </trkpt>
    <trkpt lat="48.123481" lon="15.770747">
      <ele>537.5</ele>
      <time>2026-05-17T09:07:36Z</time>
    </trkpt>
    <trkpt lat="48.123581" lon="15.770900">
      <ele>539.7</ele>
      <time>2026-05-17T09:08:00Z</time>
    </trkpt>
    <trkpt lat="48.123706" lon="15.771072">
      <ele>542.0</ele>
      <time>2026-05-17T09:08:24Z</time>
    </trkpt>
    <trkpt lat="48.123771" lon="15.771260">
      <ele>544.0</ele>
      <time>2026-05-17T09:08:48Z</time>
    </trkpt>
    <trkpt lat="48.123881" lon="15.771386">
      <ele>546.7</ele>
      <time>2026-05-17T09:09:12Z</time>
    </trkpt>
    <trkpt lat="48.123955" lon="15.771567">
      <ele>548.4</ele>
      <time>2026-05-17T09:09:36Z</time>
    </trkpt>
    <trkpt lat="48.124034" lon="15.771754">
      <ele>551.0</ele>
      <time>2026-05-17T09:10:00Z</time>
    </trkpt>
    <trkpt lat="48.124142" lon="15.771895">
      <ele>553.8</ele>
      <time>2026-05-17T09:10:24Z</time>
    </trkpt>
    <trkpt lat="48.124225" lon="15.772105">
      <ele>556.2</ele>
      <time>2026-05-17T09:10:48Z</time>
    </trkpt>
    <trkpt lat="48.124312" lon="15.772269">
      <ele>558.6</ele>
      <time>2026-05-17T09:11:12Z</time>
    </trkpt>
    <trkpt lat="48.124431" lon="15.772440">
      <ele>561.5</ele>
      <time>2026-05-17T09:11:36Z</time>
    </trkpt>
    <trkpt lat="48.124503" lon="15.772609">
      <ele>563.1</ele>
      <time>2026-05-17T09:12:00Z</time>
    </trkpt>
    <trkpt lat="48.124586" lon="15.772806">
      <ele>566.5</ele>
      <time>2026-05-17T09:12:24Z</time>
    </trkpt>
    <trkpt lat="48.124696" lon="15.772947">
      <ele>569.1</ele>
      <time>2026-05-17T09:12:48Z</time>
    </trkpt>
    <trkpt lat="48.124763" lon="15.773138">
      <ele>572.1</ele>
      <time>2026-05-17T09:13:12Z</time>
    </trkpt>
    <trkpt lat="48.124849" lon="15.773279">
      <ele>573.8</ele>
      <time>2026-05-17T09:13:36Z</time>
    </trkpt>
    <trkpt lat="48.124968" lon="15.773470">
      <ele>577.9</ele>
      <time>2026-05-17T09:14:00Z</time>
    </trkpt>
    <trkpt lat="48.125043" lon="15.773593">
      <ele>580.2</ele>
      <time>2026-05-17T09:14:24Z</time>
    </trkpt>
    <trkpt lat="48.125137" lon="15.773776">
      <ele>583.1</ele>
      <time>2026-05-17T09:14:48Z</time>
    </trkpt>
    <trkpt lat="48.125224" lon="15.773903">
      <ele>584.9</ele>
      <time>2026-05-17T09:15:12Z</time>
    </trkpt>
    <trkpt lat="48.125331" lon="15.774089">
      <ele>588.3</ele>
      <time>2026-05-17T09:15:36Z</time>
    </trkpt>
    <trkpt lat="48.125422" lon="15.774228">
      <ele>590.7</ele>
      <time>2026-05-17T09:16:00Z</time>
    </trkpt>
    <trkpt lat="48.125516" lon="15.774352">
      <ele>592.5</ele>
      <time>2026-05-17T09:16:24Z</time>
    </trkpt>
    <trkpt lat="48.125608" lon="15.774465">
      <ele>595.4</ele>
      <time>2026-05-17T09:16:48Z</time>
    </trkpt>
    <trkpt lat="48.125706" lon="15.774570">
      <ele>597.1</ele>
      <time>2026-05-17T09:17:12Z</time>
    </trkpt>
    <trkpt lat="48.125808" lon="15.774687">
      <ele>599.8</ele>
      <time>2026-05-17T09:17:36Z</time>
    </trkpt>
    <trkpt lat="48.125911" lon="15.774803">
      <ele>601.6</ele>
      <time>2026-05-17T09:18:00Z</time>
    </trkpt>
    <trkpt lat="48.125987" lon="15.774915">
      <ele>604.3</ele>
      <time>2026-05-17T09:18:24Z</time>
    </trkpt>
    <trkpt lat="48.126091" lon="15.774969">
      <ele>606.0</ele>
      <time>2026-05-17T09:18:48Z</time>
    </trkpt>
    <trkpt lat="48.126214" lon="15.775064">
      <ele>607.6</ele>
      <time>2026-05-17T09:19:12Z</time>
    </trkpt>
    <trkpt lat="48.126322" lon="15.775115">
      <ele>609.3</ele>
      <time>2026-05-17T09:19:36Z</time>
    </trkpt>
    <trkpt lat="48.126427" lon="15.775192">
      <ele>611.3</ele>
      <time>2026-05-17T09:20:00Z</time>
    </trkpt>
    <trkpt lat="48.126523" lon="15.775221">
      <ele>612.0</ele>
      <time>2026-05-17T09:20:24Z</time>
    </trkpt>
    <trkpt lat="48.126638" lon="15.775265">
      <ele>614.3</ele>
      <time>2026-05-17T09:20:48Z</time>
    </trkpt>
    <trkpt lat="48.126771" lon="15.775317">
      <ele>616.3</ele>
      <time>2026-05-17T09:21:12Z</time>
    </trkpt>
    <trkpt lat="48.126872" lon="15.775376">
      <ele>616.8</ele>
      <time>2026-05-17T09:21:36Z</time>
    </trkpt>
    <trkpt lat="48.126963" lon="15.775402">
      <ele>618.6</ele>
      <time>2026-05-17T09:22:00Z</time>
    </trkpt>
    <trkpt lat="48.127073" lon="15.775426">
      <ele>619.1</ele>
      <time>2026-05-17T09:22:24Z</time>
    </trkpt>
    <trkpt lat="48.127182" lon="15.775473">
      <ele>621.5</ele>
      <time>2026-05-17T09:22:48Z</time>
    </trkpt>
    <trkpt lat="48.127323" lon="15.775483">
      <ele>622.8</ele>
      <time>2026-05-17T09:23:12Z</time>
    </trkpt>
    <trkpt lat="48.127409" lon="15.775488">
      <ele>623.7</ele>
      <time>2026-05-17T09:23:36Z</time>
    </trkpt>
    <trkpt lat="48.127558" lon="15.775503">
      <ele>625.1</ele>
      <time>2026-05-17T09:24:00Z</time>
    </trkpt>
    <trkpt lat="48.127669" lon="15.775526">
      <ele>625.6</ele>
      <time>2026-05-17T09:24:24Z</time>
    </trkpt>
    <trkpt lat="48.127750" lon="15.775577">
      <ele>625.8</ele>
      <time>2026-05-17T09:24:48Z</time>
    </trkpt>
    <trkpt lat="48.127871" lon="15.775606">
      <ele>627.4</ele>
      <time>2026-05-17T09:25:12Z</time>
    </trkpt>
    <trkpt lat="48.128007" lon="15.775622">
      <ele>628.0</ele>
      <time>2026-05-17T09:25:36Z</time>
    </trkpt>
    <trkpt lat="48.128100" lon="15.775656">
      <ele>630.1</ele>
      <time>2026-05-17T09:26:00Z</time>
    </trkpt>
    <trkpt lat="48.128205" lon="15.775654">
      <ele>629.8</ele>
      <time>2026-05-17T09:26:24Z</time>
    </trkpt>
    <trkpt lat="48.128344" lon="15.775681">
      <ele>631.1</ele>
      <time>2026-05-17T09:26:48Z</time>
    </trkpt>
    <trkpt lat="48.128459" lon="15.775726">
      <ele>632.2</ele>
      <time>2026-05-17T09:27:12Z</time>
    </trkpt>
    <trkpt lat="48.128548" lon="15.775743">
      <ele>632.7</ele>
      <time>2026-05-17T09:27:36Z</time>
    </trkpt>
    <trkpt lat="48.128665" lon="15.775802">
      <ele>633.5</ele>
      <time>2026-05-17T09:28:00Z</time>
    </trkpt>
    <trkpt lat="48.128763" lon="15.775826">
      <ele>634.4</ele>
      <time>2026-05-17T09:28:24Z</time>
    </trkpt>
    <trkpt lat="48.128870" lon="15.775917">
      <ele>634.3</ele>
      <time>2026-05-17T09:28:48Z</time>
    </trkpt>
    <trkpt lat="48.128992" lon="15.775979">
      <ele>636.1</ele>
      <time>2026-05-17T09:29:12Z</time>
    </trkpt>
    <trkpt lat="48.129113" lon="15.776006">
      <ele>635.7</ele>
      <time>2026-05-17T09:29:36Z</time>
    </trkpt>
    <trkpt lat="48.129178" lon="15.776091">
      <ele>636.1</ele>
      <time>2026-05-17T09:30:00Z</time>
    </trkpt>
    <trkpt lat="48.129309" lon="15.776198">
      <ele>636.9</ele>
      <time>2026-05-17T09:30:24Z</time>
    </trkpt>
    <trkpt lat="48.129394" lon="15.776255">
      <ele>637.4</ele>
      <time>2026-05-17T09:30:48Z</time>
    </trkpt>
    <trkpt lat="48.129528" lon="15.776376">
      <ele>639.0</ele>
      <time>2026-05-17T09:31:12Z</time>
    </trkpt>
    <trkpt lat="48.129652" lon="15.776457">
      <ele>639.3</ele>
      <time>2026-05-17T09:31:36Z</time>
    </trkpt>
    <trkpt lat="48.129758" lon="15.776565">
      <ele>639.9</ele>
      <time>2026-05-17T09:32:00Z</time>
    </trkpt>
    <trkpt lat="48.129879" lon="15.776682">
      <ele>640.9</ele>
      <time>2026-05-17T09:32:24Z</time>
    </trkpt>
    <trkpt lat="48.129976" lon="15.776828">
      <ele>640.5</ele>
      <time>2026-05-17T09:32:48Z</time>
    </trkpt>
    <trkpt lat="48.130116" lon="15.776966">
      <ele>641.3</ele>
      <time>2026-05-17T09:33:12Z</time>
    </trkpt>
    <trkpt lat="48.130228" lon="15.777078">
      <ele>641.6</ele>
      <time>2026-05-17T09:33:36Z</time>
    </trkpt>
    <trkpt lat="48.130336" lon="15.777189">
      <ele>643.0</ele>
      <time>2026-05-17T09:34:00Z</time>
    </trkpt>
    <trkpt lat="48.130460" lon="15.777326">
      <ele>642.6</ele>
      <time>2026-05-17T09:34:24Z</time>
    </trkpt>
    <trkpt lat="48.130550" lon="15.777494">
      <ele>643.1</ele>
      <time>2026-05-17T09:34:48Z</time>
    </trkpt>
    <trkpt lat="48.130661" lon="15.777587">
      <ele>644.2</ele>
      <time>2026-05-17T09:35:12Z</time>
    </trkpt>
    <trkpt lat="48.130800" lon="15.777746">
      <ele>645.3</ele>
      <time>2026-05-17T09:35:36Z</time>
    </trkpt>
    <trkpt lat="48.130910" lon="15.777897">
      <ele>646.3</ele>
      <time>2026-05-17T09:36:00Z</time>
    </trkpt>
    <trkpt lat="48.131022" lon="15.778019">
      <ele>646.7</ele>
      <time>2026-05-17T09:36:24Z</time>
    </trkpt>
    <trkpt lat="48.131130" lon="15.778146">
      <ele>647.1</ele>
      <time>2026-05-17T09:36:48Z</time>
    </trkpt>
    <trkpt lat="48.131234" lon="15.778274">
      <ele>647.1</ele>
      <time>2026-05-17T09:37:12Z</time>
    </trkpt>
    <trkpt lat="48.131333" lon="15.778394">
      <ele>648.3</ele>
      <time>2026-05-17T09:37:36Z</time>
    </trkpt>
    <trkpt lat="48.131426" lon="15.778533">
      <ele>648.8</ele>
      <time>2026-05-17T09:38:00Z</time>
    </trkpt>
    <trkpt lat="48.131540" lon="15.778657">
      <ele>650.4</ele>
      <time>2026-05-17T09:38:24Z</time>
    </trkpt>
    <trkpt lat="48.131607" lon="15.778791">
      <ele>650.2</ele>
      <time>2026-05-17T09:38:48Z</time>
    </trkpt>
    <trkpt lat="48.131693" lon="15.778880">
      <ele>651.2</ele>
      <time>2026-05-17T09:39:12Z</time>
    </trkpt>
    <trkpt lat="48.131799" lon="15.778999">
      <ele>652.4</ele>
      <time>2026-05-17T09:39:36Z</time>
    </trkpt>
    <trkpt lat="48.131870" lon="15.779121">
      <ele>652.0</ele>
      <time>2026-05-17T09:40:00Z</time>
    </trkpt>
    <trkpt lat="48.131953" lon="15.779189">
      <ele>653.6</ele>
      <time>2026-05-17T09:40:24Z</time>
    </trkpt>
    <trkpt lat="48.132020" lon="15.779286">
      <ele>654.0</ele>
      <time>2026-05-17T09:40:48Z</time>
    </trkpt>
    <trkpt lat="48.132075" lon="15.779384">
      <ele>653.8</ele>
      <time>2026-05-17T09:41:12Z</time>
    </trkpt>
    <trkpt lat="48.132138" lon="15.779429">
      <ele>654.0</ele>
      <time>2026-05-17T09:41:36Z</time>
    </trkpt>
    <trkpt lat="48.132213" lon="15.779522">
      <ele>654.6</ele>
      <time>2026-05-17T09:42:00Z</time>
    </trkpt>
    </trkseg>
  </trk>
</gpx>
